[{"OBJECT_NAME":"STARLINK-5726","OBJECT_ID":"2023-020AR","EPOCH":"2026-03-09T03:10:06.552192","MEAN_MOTION":15.02536254,"ECCENTRICITY":0.00016732,"INCLINATION":43.0058,"RA_OF_ASC_NODE":354.8477,"ARG_OF_PERICENTER":265.2776,"MEAN_ANOMALY":94.7876,"EPHEMERIS_TYPE":0,"CLASSIFICATION_TYPE":"U","NORAD_CAT_ID":55608,"ELEMENT_SET_NO":999,"REV_AT_EPOCH":16898,"BSTAR":0.00014968395,"MEAN_MOTION_DOT":1.819e-5,"MEAN_MOTION_DDOT":0},{"OBJECT_NAME":"SEDNA-1","OBJECT_ID":"2024-149DS","EPOCH":"2026-03-09T18:22:48.434304","MEAN_MOTION":15.05597965,"ECCENTRICITY":0.00083444,"INCLINATION":97.6673,"RA_OF_ASC_NODE":149.7617,"ARG_OF_PERICENTER":330.8481,"MEAN_ANOMALY":29.2278,"EPHEMERIS_TYPE":0,"CLASSIFICATION_TYPE":"U","NORAD_CAT_ID":60580,"ELEMENT_SET_NO":999,"REV_AT_EPOCH":8542,"BSTAR":0.00060833619,"MEAN_MOTION_DOT":8.721e-5,"MEAN_MOTION_DDOT":0}]
